IRIDIUM 112             
1 41925U 17003J   23271.74613761  .00000125  00000+0  37603-4 0  9992
2 41925  86.3986 143.1065 0002256  87.4958 272.6496 14.34217193351021
IRIDIUM 111             
1 41926U 17003K   23272.15206125  .00000427  00000+0  14540-3 0  9990
2 41926  86.3992 142.9871 0002077  73.3713 286.7711 14.34215312351134
IRIDIUM 113             
1 42803U 17039A   23271.78318530  .00000018  00000+0 -69954-6 0  9995
2 42803  86.4030  16.8644 0002048  88.0838 272.0592 14.34217577328942
IRIDIUM 123             
1 42804U 17039B   23271.89443356 -.00000334  00000+0 -12647-3 0  9999
2 42804  86.3971  48.3133 0002306  90.5781 269.5679 14.34216417327725
IRIDIUM 120             
1 42805U 17039C   23271.84660651  .00000591  00000+0  20383-3 0  9993
2 42805  86.4016  16.7483 0002054  90.2642 269.8789 14.34215008328942
IRIDIUM 115             
1 42806U 17039D   23271.78883479  .00000764  00000+0  22093-3 0  9994
2 42806  86.4558  16.7612 0002345  86.5789 273.5680 14.43334330331127
IRIDIUM 118             
1 42807U 17039E   23271.92614565  .00000006  00000+0 -50642-5 0  9992
2 42807  86.3973  48.3021 0002168  94.3131 265.8312 14.34217110327738
IRIDIUM 117             
1 42808U 17039F   23271.87539538 -.00000756  00000+0 -27715-3 0  9999
2 42808  86.3971  48.2885 0002124  77.6069 282.5364 14.34215257327755
